{
  "type": "FeatureCollection",
  "features": [
    {
      "type": "Feature",
      "properties": {
        "norad_id": 38709,
        "name": "EXACTVIEW-1 (ADS-1B)",
        "group": "resource",
        "lat": -4.716992163325609,
        "lon": -88.80188324865235,
        "alt_km": 820.1151703807991,
        "timestamp": "2025-12-09T14:52:25.822792+00:00",
        "meta_object_name": "EXACTVIEW-1 (ADS-1B)",
        "meta_object_id": "2012-039C",
        "meta_epoch": "2025-12-09T07:16:08.074272",
        "meta_mean_motion": 14.24906039,
        "meta_eccentricity": 0.00108547,
        "meta_inclination": 98.9635,
        "meta_ra_of_asc_node": 91.6209,
        "meta_arg_of_pericenter": 4.164,
        "meta_mean_anomaly": 355.9626,
        "meta_ephemeris_type": 0,
        "meta_classification_type": "U",
        "meta_norad_cat_id": 38709,
        "meta_element_set_no": 999,
        "meta_rev_at_epoch": 69566,
        "meta_bstar": 0.00016303856,
        "meta_mean_motion_dot": 3.35e-06,
        "meta_mean_motion_ddot": 0,
        "tle_line1": "1 38709U 12039C   25343.30287123  .00000335  00000+0  16304-3 0  9992",
        "tle_line2": "2 38709  98.9635  91.6209 0010854   4.1640 355.9626 14.24906039695665"
      },
      "geometry": {
        "type": "Point",
        "coordinates": [
          -88.80188324865235,
          -4.716992163325609
        ]
      }
    },
    {
      "type": "Feature",
      "properties": {
        "norad_id": 38755,
        "name": "SPOT 6",
        "group": "resource",
        "lat": -15.239007721175632,
        "lon": -133.77789962713766,
        "alt_km": 702.5555359029531,
        "timestamp": "2025-12-09T14:52:25.822802+00:00",
        "meta_object_name": "SPOT 6",
        "meta_object_id": "2012-047A",
        "meta_epoch": "2025-12-09T05:44:58.072992",
        "meta_mean_motion": 14.58598104,
        "meta_eccentricity": 0.00010807,
        "meta_inclination": 98.1574,
        "meta_ra_of_asc_node": 48.0884,
        "meta_arg_of_pericenter": 97.706,
        "meta_mean_anomaly": 262.4262,
        "meta_ephemeris_type": 0,
        "meta_classification_type": "U",
        "meta_norad_cat_id": 38755,
        "meta_element_set_no": 999,
        "meta_rev_at_epoch": 70536,
        "meta_bstar": 0.00013655888,
        "meta_mean_motion_dot": 5.9e-06,
        "meta_mean_motion_ddot": 0,
        "tle_line1": "1 38755U 12047A   25343.23956103  .00000590  00000+0  13656-3 0  9995",
        "tle_line2": "2 38755  98.1574  48.0884 0001080  97.7060 262.4262 14.58598104705364"
      },
      "geometry": {
        "type": "Point",
        "coordinates": [
          -133.77789962713766,
          -15.239007721175632
        ]
      }
    },
    {
      "type": "Feature",
      "properties": {
        "norad_id": 39019,
        "name": "PLEIADES 1B",
        "group": "resource",
        "lat": 80.71545262248225,
        "lon": -62.05767776188441,
        "alt_km": 689.5934512035228,
        "timestamp": "2025-12-09T14:52:25.822812+00:00",
        "meta_object_name": "PLEIADES 1B",
        "meta_object_id": "2012-068A",
        "meta_epoch": "2025-12-09T07:51:25.151616",
        "meta_mean_motion": 14.58547701,
        "meta_eccentricity": 0.00012319,
        "meta_inclination": 98.1796,
        "meta_ra_of_asc_node": 56.033,
        "meta_arg_of_pericenter": 81.5924,
        "meta_mean_anomaly": 278.5415,
        "meta_ephemeris_type": 0,
        "meta_classification_type": "U",
        "meta_norad_cat_id": 39019,
        "meta_element_set_no": 999,
        "meta_rev_at_epoch": 69317,
        "meta_bstar": 0.00013594133,
        "meta_mean_motion_dot": 5.86e-06,
        "meta_mean_motion_ddot": 0,
        "tle_line1": "1 39019U 12068A   25343.32737444  .00000586  00000+0  13594-3 0  9993",
        "tle_line2": "2 39019  98.1796  56.0330 0001231  81.5924 278.5415 14.58547701693177"
      },
      "geometry": {
        "type": "Point",
        "coordinates": [
          -62.05767776188441,
          80.71545262248225
        ]
      }
    },
    {
      "type": "Feature",
      "properties": {
        "norad_id": 39030,
        "name": "GOKTURK 2",
        "group": "resource",
        "lat": 57.00104516773452,
        "lon": 17.433967607531116,
        "alt_km": 638.2097219597945,
        "timestamp": "2025-12-09T14:52:25.822823+00:00",
        "meta_object_name": "GOKTURK 2",
        "meta_object_id": "2012-073A",
        "meta_epoch": "2025-12-09T07:48:39.703392",
        "meta_mean_motion": 14.75283098,
        "meta_eccentricity": 9.13e-05,
        "meta_inclination": 97.689,
        "meta_ra_of_asc_node": 185.1465,
        "meta_arg_of_pericenter": 99.1137,
        "meta_mean_anomaly": 261.0176,
        "meta_ephemeris_type": 0,
        "meta_classification_type": "U",
        "meta_norad_cat_id": 39030,
        "meta_element_set_no": 999,
        "meta_rev_at_epoch": 69651,
        "meta_bstar": 0.00014078499,
        "meta_mean_motion_dot": 9.06e-06,
        "meta_mean_motion_ddot": 0,
        "tle_line1": "1 39030U 12073A   25343.32545953  .00000906  00000+0  14078-3 0  9998",
        "tle_line2": "2 39030  97.6890 185.1465 0000913  99.1137 261.0176 14.75283098696516"
      },
      "geometry": {
        "type": "Point",
        "coordinates": [
          17.433967607531116,
          57.00104516773452
        ]
      }
    },
    {
      "type": "Feature",
      "properties": {
        "norad_id": 39084,
        "name": "LANDSAT 8",
        "group": "resource",
        "lat": -76.67902324220385,
        "lon": 89.29787442640641,
        "alt_km": 710.6107511188093,
        "timestamp": "2025-12-09T14:52:25.822833+00:00",
        "meta_object_name": "LANDSAT 8",
        "meta_object_id": "2013-008A",
        "meta_epoch": "2025-12-09T06:59:52.092960",
        "meta_mean_motion": 14.57109262,
        "meta_eccentricity": 0.00011161,
        "meta_inclination": 98.2076,
        "meta_ra_of_asc_node": 51.4159,
        "meta_arg_of_pericenter": 87.0153,
        "meta_mean_anomaly": 273.1174,
        "meta_ephemeris_type": 0,
        "meta_classification_type": "U",
        "meta_norad_cat_id": 39084,
        "meta_element_set_no": 999,
        "meta_rev_at_epoch": 67024,
        "meta_bstar": 0.000188218,
        "meta_mean_motion_dot": 8.03e-06,
        "meta_mean_motion_ddot": 0,
        "tle_line1": "1 39084U 13008A   25343.29157515  .00000803  00000+0  18822-3 0  9992",
        "tle_line2": "2 39084  98.2076  51.4159 0001116  87.0153 273.1174 14.57109262670247"
      },
      "geometry": {
        "type": "Point",
        "coordinates": [
          89.29787442640641,
          -76.67902324220385
        ]
      }
    },
    {
      "type": "Feature",
      "properties": {
        "norad_id": 39086,
        "name": "SARAL",
        "group": "resource",
        "lat": 0.5061954215645211,
        "lon": -12.33307262753982,
        "alt_km": 784.5604991441542,
        "timestamp": "2025-12-09T14:52:25.822844+00:00",
        "meta_object_name": "SARAL",
        "meta_object_id": "2013-009A",
        "meta_epoch": "2025-12-09T07:20:07.266624",
        "meta_mean_motion": 14.32755388,
        "meta_eccentricity": 0.00027981,
        "meta_inclination": 98.5504,
        "meta_ra_of_asc_node": 167.2809,
        "meta_arg_of_pericenter": 115.221,
        "meta_mean_anomaly": 244.9264,
        "meta_ephemeris_type": 0,
        "meta_classification_type": "U",
        "meta_norad_cat_id": 39086,
        "meta_element_set_no": 999,
        "meta_rev_at_epoch": 66841,
        "meta_bstar": 0.00010988052,
        "meta_mean_motion_dot": 2.56e-06,
        "meta_mean_motion_ddot": 0,
        "tle_line1": "1 39086U 13009A   25343.30563966  .00000256  00000+0  10988-3 0  9995",
        "tle_line2": "2 39086  98.5504 167.2809 0002798 115.2210 244.9264 14.32755388668412"
      },
      "geometry": {
        "type": "Point",
        "coordinates": [
          -12.33307262753982,
          0.5061954215645211
        ]
      }
    },
    {
      "type": "Feature",
      "properties": {
        "norad_id": 39150,
        "name": "GAOFEN-1",
        "group": "resource",
        "lat": -6.340677941872966,
        "lon": -126.55364651997385,
        "alt_km": 633.5925749484732,
        "timestamp": "2025-12-09T14:52:25.822854+00:00",
        "meta_object_name": "GAOFEN-1",
        "meta_object_id": "2013-018A",
        "meta_epoch": "2025-12-09T07:31:40.946304",
        "meta_mean_motion": 14.76526158,
        "meta_eccentricity": 0.00179902,
        "meta_inclination": 97.9328,
        "meta_ra_of_asc_node": 54.0335,
        "meta_arg_of_pericenter": 153.6105,
        "meta_mean_anomaly": 206.6025,
        "meta_ephemeris_type": 0,
        "meta_classification_type": "U",
        "meta_norad_cat_id": 39150,
        "meta_element_set_no": 999,
        "meta_rev_at_epoch": 68022,
        "meta_bstar": 0.00023870749,
        "meta_mean_motion_dot": 1.617e-05,
        "meta_mean_motion_ddot": 0,
        "tle_line1": "1 39150U 13018A   25343.31366836  .00001617  00000+0  23871-3 0  9992",
        "tle_line2": "2 39150  97.9328  54.0335 0017990 153.6105 206.6025 14.76526158680229"
      },
      "geometry": {
        "type": "Point",
        "coordinates": [
          -126.55364651997385,
          -6.340677941872966
        ]
      }
    }
  ]
}